1 27831U 03028B   16258.31299432 -.00000163  00000+0  00000+0 0  9998
2 27831   0.0354 225.3277 0004558 311.3778  85.7094  1.00269993 48593
1 27831U 03028B   16258.51152220 -.00000164  00000+0  00000+0 0  9994
2 27831   0.0350 225.1488 0004630 312.9733 155.9562  1.00268330 17332
1 27831U 03028B   16258.99108787  .00000000  00000+0  10000-3 0  9998
2 27831   0.0284 138.1404 0004299  38.6604 330.3658  1.00266754 48606
1 27831U 03028B   16258.99197361  .00000000  00000+0  10000-3 0  9994
2 27831   0.0283 138.7239 0004293  37.9378 330.8240  1.00266749 48607
1 27831U 03028B   16259.21381950 -.00000164  00000+0  00000+0 0  9996
2 27831   0.0333 222.7775 0004587 313.4590  51.3640  1.00271734 48605
1 27831U 03028B   16259.63779726 -.00000165  00000+0  00000+0 0  9995
2 27831   0.0326 221.8326 0004563 315.0583 203.7606  1.00271794 17341
1 27831U 03028B   16260.45416163 -.00000165  00000+0  00000+0 0  9990
2 27831   0.0311 218.4362 0004577 320.4482 136.4617  1.00271609 48613
1 27831U 03028B   16260.62735247 -.00000166  00000+0  00000+0 0  9997
2 27831   0.0305 217.7741 0004584 321.4177 198.6737  1.00271561 17356
1 27831U 03028B   16261.50218644 -.00000166  00000+0  00000+0 0  9992
2 27831   0.0289 214.9145 0004585 326.2933 152.4586  1.00271369 48628
1 27831U 03028B   16261.70760911 -.00000167  00000+0  00000+0 0  9994
2 27831   0.0282 213.6731 0004595 328.2092 225.9385  1.00271307 17369
1 27831U 03028B   16262.44424325 -.00000168  00000+0  00000+0 0  9993
2 27831   0.0271 211.4323 0004589 332.1331 130.1676  1.00271176 17378
1 27831U 03028B   16262.82065391 -.00000168  00000+0  00000+0 0  9999
2 27831   0.0264 209.6954 0004530 336.2677 263.6392  1.00269302 48642
1 27831U 03028B   16263.31368860 -.00000169  00000+0  00000+0 0  9992
2 27831   0.0256 207.9134 0004461 338.2892  81.3714  1.00268900 17381
1 27831U 03028B   16263.51993811 -.00000169  00000+0  00000+0 0  9994
2 27831   0.0251 207.2231 0004592 329.6157 165.1974  1.00272263 48649
1 27831U 03028B   16264.61152942 -.00000171  00000+0  00000+0 0  9991
2 27831   0.0234 203.0686 0004539 334.3605 198.6588  1.00272412 48660
1 27831U 03028B   16265.86198459 -.00000173  00000+0  00000+0 0  9994
2 27831   0.0225 197.6905 0004492 343.4896 286.3049  1.00272175 48677
1 27831U 03028B   16266.85257807 -.00000176  00000+0  00000+0 0  9990
2 27831   0.0214 193.4690 0004435 349.1156 282.4914  1.00272192 17414
1 27831U 03028B   16266.95057764  .00000000  00000+0  10000-3 0  9991
2 27831   0.0408 121.9127 0004321  57.9261 320.5858  1.00266540 48690
1 27831U 03028B   16266.95256735  .00000000  00000+0  10000-3 0  9990
2 27831   0.0408 122.9213 0004304  57.3163 320.9000  1.00266430 48683
1 27831U 03028B   16267.76901119 -.00000177  00000+0  00000+0 0  9994
2 27831   0.0206 189.4228 0004375 354.5256 251.9477  1.00272225 17424
1 27831U 03028B   16267.76901119 -.00000177  00000+0  00000+0 0  9994
2 27831   0.0206 189.4228 0004375 354.5256 251.9477  1.00272225 48697
1 27831U 03028B   16268.83650034 -.00000179  00000+0  00000+0 0  9992
2 27831   0.0202 185.2294 0004317   0.2689 275.7467  1.00272218 17434
1 27831U 03028B   16268.83650034 -.00000179  00000+0  00000+0 0  9992
2 27831   0.0202 185.2294 0004317   0.2689 275.7467  1.00272218 48708
1 27831U 03028B   16269.89077046 -.00000179  00000+0  00000+0 0  9995
2 27831   0.0199 181.3500 0004267   5.1851 295.2874  1.00272258 17450
1 27831U 03028B   16269.89077046 -.00000179  00000+0  00000+0 0  9995
2 27831   0.0199 181.3500 0004267   5.1851 295.2874  1.00272258 48713
1 27831U 03028B   16270.46297622 -.00000179  00000+0  00000+0 0  9994
2 27831   0.0198 179.3401 0004253   7.6024 141.4383  1.00272290 17453
1 27831U 03028B   16270.60020841 -.00000179  00000+0  00000+0 0  9997
2 27831   0.0198 178.5370 0004241   8.5529 190.8301  1.00272301 17457
1 27831U 03028B   16270.92653153  .00000000  00000+0  10000-3 0  9997
2 27831   0.0480 116.9985 0004301  64.4795 314.2173  1.00266759 48736
1 27831U 03028B   16270.92728602  .00000000  00000+0  10000-3 0  9999
2 27831   0.0480 117.3648 0004300  64.3326 314.2645  1.00266649 48737
1 27831U 03028B   16271.52954859 -.00000178  00000+0  00000+0 0  9993
2 27831   0.0201 175.7371 0004214  12.0820 165.5802  1.00272315 48731
1 27831U 03028B   16272.71507641 -.00000175  00000+0  00000+0 0  9995
2 27831   0.0209 171.3410 0004169  17.1743 232.8438  1.00272403 48746
1 27831U 03028B   16272.85257980 -.00000175  00000+0  00000+0 0  9998
2 27831   0.0209 170.8364 0004165  17.7530 282.4069  1.00272406 17474
1 27831U 03028B   16273.40125898 -.00000173  00000+0  00000+0 0  9990
2 27831   0.0213 169.6441 0004168  19.2615 120.1566  1.00272427 17489
1 27831U 03028B   16274.51189620 -.00000170  00000+0  00000+0 0  9993
2 27831   0.0222 165.9223 0004151  23.4390 160.6265  1.00272384 48756
1 27831U 03028B   16274.60869662 -.00000169  00000+0  00000+0 0  9992
2 27831   0.0224 165.4192 0004149  23.9656 195.5466  1.00272380 17498
